{
  "type": "FeatureCollection",
  "features": [
    {
      "type": "Feature",
      "geometry": {
        "type": "Polygon",
        "coordinates": [
          [
            [
              -4.5,
              58.75
            ],
            [
              -4.5,
              58.5764
            ],
            [
              -4.500711,
              58.576313
            ],
            [
              -4.502286,
              58.575786
            ],
            [
              -4.506808,
              58.576521
            ],
            [
              -4.510241,
              58.577092
            ],
            [
              -4.512252,
              58.578318
            ],
            [
              -4.515555,
              58.57889
            ],
            [
              -4.522738,
              58.577095
            ],
            [
              -4.52493,
              58.577421
            ],
            [
              -4.526434,
              58.579783
            ],
            [
              -4.533327,
              58.578967
            ],
            [
              -4.533588,
              58.581749
            ],
            [
              -4.536891,
              58.580929
            ],
            [
              -4.537075,
              58.578967
            ],
            [
              -4.540396,
              58.578978
            ],
            [
              -4.542945,
              58.581335
            ],
            [
              -4.545803,
              58.58052
            ],
            [
              -4.546326,
              58.578168
            ],
            [
              -4.553206,
              58.576877
            ],
            [
              -4.55798,
              58.578655
            ],
            [
              -4.565301,
              58.57802
            ],
            [
              -4.571325,
              58.576089
            ],
            [
              -4.576297,
              58.580217
            ],
            [
              -4.581411,
              58.579652
            ],
            [
              -4.586567,
              58.578269
            ],
            [
              -4.592189,
              58.576402
            ],
            [
              -4.591024,
              58.574137
            ],
            [
              -4.596212,
              58.572859
            ],
            [
              -4.599718,
              58.56924
            ],
            [
              -4.599162,
              58.562822
            ],
            [
              -4.598252,
              58.559676
            ],
            [
              -4.601904,
              58.557428
            ],
            [
              -4.603887,
              58.555171
            ],
            [
              -4.602667,
              58.552424
            ],
            [
              -4.598103,
              58.548637
            ],
            [
              -4.595404,
              58.546192
            ],
            [
              -4.594798,
              58.538141
            ],
            [
              -4.5957,
              58.537258
            ],
            [
              -4.593735,
              58.534438
            ],
            [
              -4.597502,
              58.533554
            ],
            [
              -4.601435,
              58.533152
            ],
            [
              -4.602658,
              58.531375
            ],
            [
              -4.602984,
              58.526772
            ],
            [
              -4.606032,
              58.526281
            ],
            [
              -4.610624,
              58.523762
            ],
            [
              -4.618961,
              58.523861
            ],
            [
              -4.627359,
              58.52386
            ],
            [
              -4.627669,
              58.522968
            ],
            [
              -4.633545,
              58.520295
            ],
            [
              -4.63494,
              58.5207
            ],
            [
              -4.638507,
              58.521349
            ],
            [
              -4.640986,
              58.521188
            ],
            [
              -4.649305,
              58.516583
            ],
            [
              -4.652772,
              58.511134
            ],
            [
              -4.658874,
              58.508938
            ],
            [
              -4.661246,
              58.50715
            ],
            [
              -4.660645,
              58.505124
            ],
            [
              -4.66124,
              58.498456
            ],
            [
              -4.668096,
              58.499737
            ],
            [
              -4.670042,
              58.495711
            ],
            [
              -4.661898,
              58.496799
            ],
            [
              -4.661287,
              58.49486
            ],
            [
              -4.662911,
              58.489761
            ],
            [
              -4.66196,
              58.48612
            ],
            [
              -4.663882,
              58.483218
            ],
            [
              -4.666964,
              58.482092
            ],
            [
              -4.673179,
              58.483545
            ],
            [
              -4.677781,
              58.482902
            ],
            [
              -4.684181,
              58.4775
            ],
            [
              -4.687369,
              58.477497
            ],
            [
              -4.692091,
              58.477492
            ],
            [
              -4.694994,
              58.478057
            ],
            [
              -4.695759,
              58.477083
            ],
            [
              -4.694994,
              58.474814
            ],
            [
              -4.69881,
              58.469929
            ],
            [
              -4.702775,
              58.467893
            ],
            [
              -4.708003,
              58.465128
            ],
            [
              -4.712886,
              58.464888
            ],
            [
              -4.715495,
              58.463112
            ],
            [
              -4.723278,
              58.463844
            ],
            [
              -4.726378,
              58.458033
            ],
            [
              -4.73106,
              58.451618
            ],
            [
              -4.73827,
              58.44693
            ],
            [
              -4.749367,
              58.44943
            ],
            [
              -4.760035,
              58.448866
            ],
            [
              -4.758632,
              58.450867
            ],
            [
              -4.755041,
              58.45142
            ],
            [
              -4.752064,
              58.453843
            ],
            [
              -4.753641,
              58.456819
            ],
            [
              -4.752388,
              58.459748
            ],
            [
              -4.749072,
              58.459216
            ],
            [
              -4.744341,
              58.458041
            ],
            [
              -4.746063,
              58.46239
            ],
            [
              -4.741122,
              58.467823
            ],
            [
              -4.72921,
              58.47502
            ],
            [
              -4.723195,
              58.481756
            ],
            [
              -4.716911,
              58.489796
            ],
            [
              -4.710927,
              58.49723
            ],
            [
              -4.704297,
              58.500101
            ],
            [
              -4.69375,
              58.504691
            ],
            [
              -4.691227,
              58.508053
            ],
            [
              -4.687888,
              58.508059
            ],
            [
              -4.682259,
              58.512626
            ],
            [
              -4.683363,
              58.51521
            ],
            [
              -4.669705,
              58.525576
            ],
            [
              -4.667412,
              58.525888
            ],
            [
              -4.665271,
              58.524364
            ],
            [
              -4.662966,
              58.524926
            ],
            [
              -4.660497,
              58.527584
            ],
            [
              -4.655428,
              58.530942
            ],
            [
              -4.651327,
              58.534512
            ],
            [
              -4.653058,
              58.540476
            ],
            [
              -4.654316,
              58.544204
            ],
            [
              -4.657331,
              58.546524
            ],
            [
              -4.657,
              58.54984
            ],
            [
              -4.653174,
              58.551167
            ],
            [
              -4.656672,
              58.55241
            ],
            [
              -4.659856,
              58.551415
            ],
            [
              -4.663188,
              58.552659
            ],
            [
              -4.663511,
              58.551166
            ],
            [
              -4.666532,
              58.550337
            ],
            [
              -4.66764,
              58.551415
            ],
            [
              -4.67336,
              58.551166
            ],
            [
              -4.680506,
              58.552493
            ],
            [
              -4.67844,
              58.552907
            ],
            [
              -4.680185,
              58.554068
            ],
            [
              -4.685426,
              58.55581
            ],
            [
              -4.690986,
              58.556972
            ],
            [
              -4.695321,
              58.556442
            ],
            [
              -4.702485,
              58.55598
            ],
            [
              -4.704524,
              58.557731
            ],
            [
              -4.707047,
              58.559404
            ],
            [
              -4.709897,
              58.560916
            ],
            [
              -4.709422,
              58.56327
            ],
            [
              -4.70656,
              58.563939
            ],
            [
              -4.704435,
              58.566462
            ],
            [
              -4.708163,
              58.566871
            ],
            [
              -4.71405,
              58.56902
            ],
            [
              -4.717191,
              58.570146
            ],
            [
              -4.720926,
              58.570454
            ],
            [
              -4.726628,
              58.570149
            ],
            [
              -4.731346,
              58.568721
            ],
            [
              -4.734493,
              58.566273
            ],
            [
              -4.740955,
              58.569848
            ],
            [
              -4.740365,
              58.570766
            ],
            [
              -4.742716,
              58.573114
            ],
            [
              -4.742124,
              58.575363
            ],
            [
              -4.744673,
              58.575669
            ],
            [
              -4.740546,
              58.579966
            ],
            [
              -4.742505,
              58.582627
            ],
            [
              -4.741915,
              58.583651
            ],
            [
              -4.743681,
              58.584469
            ],
            [
              -4.745056,
              58.583239
            ],
            [
              -4.751922,
              58.582624
            ],
            [
              -4.755453,
              58.584058
            ],
            [
              -4.754865,
              58.587128
            ],
            [
              -4.762518,
              58.587844
            ],
            [
              -4.76448,
              58.588765
            ],
            [
              -4.766442,
              58.590401
            ],
            [
              -4.765265,
              58.592242
            ],
            [
              -4.767227,
              58.593571
            ],
            [
              -4.766246,
              58.596025
            ],
            [
              -4.765069,
              58.597967
            ],
            [
              -4.77017,
              58.599808
            ],
            [
              -4.771348,
              58.601546
            ],
            [
              -4.768993,
              58.604919
            ],
            [
              -4.770759,
              58.60451
            ],
            [
              -4.774487,
              58.604306
            ],
            [
              -4.778804,
              58.60175
            ],
            [
              -4.779981,
              58.600217
            ],
            [
              -4.784298,
              58.601239
            ],
            [
              -4.78626,
              58.599501
            ],
            [
              -4.789792,
              58.600421
            ],
            [
              -4.792736,
              58.600012
            ],
            [
              -4.79097,
              58.599297
            ],
            [
              -4.788026,
              58.597456
            ],
            [
              -4.787045,
              58.595514
            ],
            [
              -4.779785,
              58.594696
            ],
            [
              -4.777038,
              58.591935
            ],
            [
              -4.771348,
              58.588356
            ],
            [
              -4.769385,
              58.585697
            ],
            [
              -4.765864,
              58.58378
            ],
            [
              -4.765869,
              58.579773
            ],
            [
              -4.76803,
              58.576796
            ],
            [
              -4.771758,
              58.576796
            ],
            [
              -4.776074,
              58.577617
            ],
            [
              -4.782943,
              58.577621
            ],
            [
              -4.788243,
              58.577214
            ],
            [
              -4.792353,
              58.577507
            ],
            [
              -4.795662,
              58.576152
            ],
            [
              -4.795472,
              58.578406
            ],
            [
              -4.798783,
              58.580428
            ],
            [
              -4.799558,
              58.579297
            ],
            [
              -4.79761,
              58.577572
            ],
            [
              -4.798573,
              58.573475
            ],
            [
              -4.799341,
              58.570201
            ],
            [
              -4.801082,
              58.568253
            ],
            [
              -4.80265,
              58.56591
            ],
            [
              -4.805576,
              58.564074
            ],
            [
              -4.804423,
              58.560714
            ],
            [
              -4.798779,
              58.558985
            ],
            [
              -4.796445,
              58.555922
            ],
            [
              -4.789608,
              58.553468
            ],
            [
              -4.782329,
              58.552621
            ],
            [
              -4.777941,
              58.55084
            ],
            [
              -4.778359,
              58.548123
            ],
            [
              -4.778987,
              58.544969
            ],
            [
              -4.78108,
              58.541268
            ],
            [
              -4.783793,
              58.538101
            ],
            [
              -4.788087,
              58.536467
            ],
            [
              -4.7911,
              58.5333
            ],
            [
              -5,
              58.5333
            ],
            [
              -5,
              58.75
            ],
            [
              -4.5,
              58.75
            ]
          ]
        ]
      },
      "properties": {
        "name": "D802",
        "description": "D802 Cape Wrath Danger Area"
      }
    }
  ]
}