{
  "type": "FeatureCollection",
  "features": [
    {
      "type": "Feature",
      "geometry": {
        "type": "Polygon",
        "coordinates": [
          [
            [
              -4.4551097,
              58.4235839
            ],
            [
              -4.4681973,
              58.4359505
            ],
            [
              -4.4765449,
              58.4420134
            ],
            [
              -4.4772939,
              58.4420852
            ],
            [
              -4.4775426,
              58.4424261
            ],
            [
              -4.4752488,
              58.4470022
            ],
            [
              -4.4755722,
              58.4471093
            ],
            [
              -4.4769303,
              58.4473124
            ],
            [
              -4.477189,
              58.4478877
            ],
            [
              -4.4783531,
              58.4477185
            ],
            [
              -4.4806166,
              58.4492075
            ],
            [
              -4.4790644,
              58.4498166
            ],
            [
              -4.4771243,
              58.4536063
            ],
            [
              -4.4720153,
              58.4556702
            ],
            [
              -4.4694284,
              58.4555687
            ],
            [
              -4.4667405,
              58.4581397
            ],
            [
              -4.4655288,
              58.4664853
            ],
            [
              -4.4662652,
              58.4676408
            ],
            [
              -4.4643013,
              58.4695665
            ],
            [
              -4.4629102,
              58.4712354
            ],
            [
              -4.4622556,
              58.4730325
            ],
            [
              -4.4621738,
              58.474744
            ],
            [
              -4.4608645,
              58.4764267
            ],
            [
              -4.460619,
              58.4780953
            ],
            [
              -4.4589006,
              58.4795926
            ],
            [
              -4.4569367,
              58.4810471
            ],
            [
              -4.4542364,
              58.4818045
            ],
            [
              -4.4518633,
              58.4851838
            ],
            [
              -4.4521548,
              58.4894965
            ],
            [
              -4.4551825,
              58.490865
            ],
            [
              -4.4562463,
              58.4937303
            ],
            [
              -4.4538732,
              58.4963387
            ],
            [
              -4.4499915,
              58.496782
            ],
            [
              -4.4484232,
              58.501644
            ],
            [
              -4.4361907,
              58.506123
            ],
            [
              -4.432845,
              58.5095638
            ],
            [
              -4.4257281,
              58.5106057
            ],
            [
              -4.4240553,
              58.5135
            ],
            [
              -4.4092192,
              58.5214068
            ],
            [
              -4.409656,
              58.5238393
            ],
            [
              -4.4141691,
              58.5253596
            ],
            [
              -4.4215146,
              58.524755
            ],
            [
              -4.4243106,
              58.5279179
            ],
            [
              -4.4280386,
              58.5288505
            ],
            [
              -4.4309123,
              58.5304723
            ],
            [
              -4.4292036,
              58.5327428
            ],
            [
              -4.4258639,
              58.533878
            ],
            [
              -4.4240776,
              58.535459
            ],
            [
              -4.4241552,
              58.5378913
            ],
            [
              -4.4265638,
              58.5419387
            ],
            [
              -4.4263774,
              58.5472879
            ],
            [
              -4.4248864,
              58.5499622
            ],
            [
              -4.4277753,
              58.5516639
            ],
            [
              -4.4308902,
              58.5508731
            ],
            [
              -4.4324341,
              58.5504858
            ],
            [
              -4.4334414,
              58.5512361
            ],
            [
              -4.431586,
              58.5520831
            ],
            [
              -4.4320498,
              58.5534142
            ],
            [
              -4.4341678,
              58.5544009
            ],
            [
              -4.4365093,
              58.5541088
            ],
            [
              -4.43685,
              58.5542293
            ],
            [
              -4.4360627,
              58.5554039
            ],
            [
              -4.4385819,
              58.5564635
            ],
            [
              -4.4404871,
              58.5549193
            ],
            [
              -4.4401738,
              58.5545101
            ],
            [
              -4.4405265,
              58.5539797
            ],
            [
              -4.4412111,
              58.5537958
            ],
            [
              -4.4414146,
              58.552551
            ],
            [
              -4.4423362,
              58.5523269
            ],
            [
              -4.4428223,
              58.5515824
            ],
            [
              -4.4436017,
              58.551561
            ],
            [
              -4.4441103,
              58.5517201
            ],
            [
              -4.4447298,
              58.5523315
            ],
            [
              -4.4461723,
              58.5531432
            ],
            [
              -4.4492129,
              58.5519016
            ],
            [
              -4.4502566,
              58.5487553
            ],
            [
              -4.4565187,
              58.5485738
            ],
            [
              -4.4522348,
              58.5531415
            ],
            [
              -4.4517641,
              58.5555921
            ],
            [
              -4.4568666,
              58.5616412
            ],
            [
              -4.4629855,
              58.5619994
            ],
            [
              -4.4688112,
              58.564242
            ],
            [
              -4.4729698,
              58.563917
            ],
            [
              -4.4733863,
              58.5634528
            ],
            [
              -4.4746839,
              58.5634253
            ],
            [
              -4.4758102,
              58.5636726
            ],
            [
              -4.4755467,
              58.564149
            ],
            [
              -4.4853644,
              58.5670739
            ],
            [
              -4.4869983,
              58.5674201
            ],
            [
              -4.4868866,
              58.5680296
            ],
            [
              -4.4875088,
              58.5677773
            ],
            [
              -4.4894446,
              58.5676331
            ],
            [
              -4.4904816,
              58.5680296
            ],
            [
              -4.4926248,
              58.5679215
            ],
            [
              -4.4934544,
              58.5688588
            ],
            [
              -4.4925557,
              58.5698322
            ],
            [
              -4.4941457,
              58.5709498
            ],
            [
              -4.4943532,
              58.5722475
            ],
            [
              -4.4955976,
              58.5729685
            ],
            [
              -4.4956667,
              58.5736895
            ],
            [
              -4.4975149,
              58.5740378
            ],
            [
              -4.4985751,
              58.5748313
            ],
            [
              -4.4983265,
              58.5757388
            ],
            [
              -4.4988464,
              58.5759156
            ],
            [
              -4.4999089,
              58.5754441
            ],
            [
              -4.5,
              58.5764
            ],
            [
              -4.500711,
              58.576313
            ],
            [
              -4.502286,
              58.575786
            ],
            [
              -4.506808,
              58.576521
            ],
            [
              -4.510241,
              58.577092
            ],
            [
              -4.512252,
              58.578318
            ],
            [
              -4.515555,
              58.57889
            ],
            [
              -4.522738,
              58.577095
            ],
            [
              -4.52493,
              58.577421
            ],
            [
              -4.526434,
              58.579783
            ],
            [
              -4.533327,
              58.578967
            ],
            [
              -4.533588,
              58.581749
            ],
            [
              -4.536891,
              58.580929
            ],
            [
              -4.537075,
              58.578967
            ],
            [
              -4.540396,
              58.578978
            ],
            [
              -4.542945,
              58.581335
            ],
            [
              -4.545803,
              58.58052
            ],
            [
              -4.546326,
              58.578168
            ],
            [
              -4.553206,
              58.576877
            ],
            [
              -4.55798,
              58.578655
            ],
            [
              -4.565301,
              58.57802
            ],
            [
              -4.571325,
              58.576089
            ],
            [
              -4.576297,
              58.580217
            ],
            [
              -4.581411,
              58.579652
            ],
            [
              -4.586567,
              58.578269
            ],
            [
              -4.592189,
              58.576402
            ],
            [
              -4.591024,
              58.574137
            ],
            [
              -4.596212,
              58.572859
            ],
            [
              -4.599718,
              58.56924
            ],
            [
              -4.599162,
              58.562822
            ],
            [
              -4.598252,
              58.559676
            ],
            [
              -4.601904,
              58.557428
            ],
            [
              -4.603887,
              58.555171
            ],
            [
              -4.602667,
              58.552424
            ],
            [
              -4.598103,
              58.548637
            ],
            [
              -4.595404,
              58.546192
            ],
            [
              -4.594798,
              58.538141
            ],
            [
              -4.5957,
              58.537258
            ],
            [
              -4.593735,
              58.534438
            ],
            [
              -4.597502,
              58.533554
            ],
            [
              -4.601435,
              58.533152
            ],
            [
              -4.602658,
              58.531375
            ],
            [
              -4.602984,
              58.526772
            ],
            [
              -4.606032,
              58.526281
            ],
            [
              -4.610624,
              58.523762
            ],
            [
              -4.618961,
              58.523861
            ],
            [
              -4.627359,
              58.52386
            ],
            [
              -4.627669,
              58.522968
            ],
            [
              -4.633545,
              58.520295
            ],
            [
              -4.63494,
              58.5207
            ],
            [
              -4.638507,
              58.521349
            ],
            [
              -4.640986,
              58.521188
            ],
            [
              -4.649305,
              58.516583
            ],
            [
              -4.652772,
              58.511134
            ],
            [
              -4.658874,
              58.508938
            ],
            [
              -4.661246,
              58.50715
            ],
            [
              -4.660645,
              58.505124
            ],
            [
              -4.66124,
              58.498456
            ],
            [
              -4.668096,
              58.499737
            ],
            [
              -4.670042,
              58.495711
            ],
            [
              -4.661898,
              58.496799
            ],
            [
              -4.661287,
              58.49486
            ],
            [
              -4.662911,
              58.489761
            ],
            [
              -4.66196,
              58.48612
            ],
            [
              -4.663882,
              58.483218
            ],
            [
              -4.666964,
              58.482092
            ],
            [
              -4.673179,
              58.483545
            ],
            [
              -4.677781,
              58.482902
            ],
            [
              -4.684181,
              58.4775
            ],
            [
              -4.687369,
              58.477497
            ],
            [
              -4.692091,
              58.477492
            ],
            [
              -4.694994,
              58.478057
            ],
            [
              -4.695759,
              58.477083
            ],
            [
              -4.694994,
              58.474814
            ],
            [
              -4.69881,
              58.469929
            ],
            [
              -4.702775,
              58.467893
            ],
            [
              -4.708003,
              58.465128
            ],
            [
              -4.712886,
              58.464888
            ],
            [
              -4.715495,
              58.463112
            ],
            [
              -4.723278,
              58.463844
            ],
            [
              -4.726378,
              58.458033
            ],
            [
              -4.73106,
              58.451618
            ],
            [
              -4.73827,
              58.44693
            ],
            [
              -4.749367,
              58.44943
            ],
            [
              -4.760035,
              58.448866
            ],
            [
              -4.758632,
              58.450867
            ],
            [
              -4.755041,
              58.45142
            ],
            [
              -4.752064,
              58.453843
            ],
            [
              -4.753641,
              58.456819
            ],
            [
              -4.752388,
              58.459748
            ],
            [
              -4.749072,
              58.459216
            ],
            [
              -4.744341,
              58.458041
            ],
            [
              -4.746063,
              58.46239
            ],
            [
              -4.741122,
              58.467823
            ],
            [
              -4.72921,
              58.47502
            ],
            [
              -4.723195,
              58.481756
            ],
            [
              -4.716911,
              58.489796
            ],
            [
              -4.710927,
              58.49723
            ],
            [
              -4.704297,
              58.500101
            ],
            [
              -4.69375,
              58.504691
            ],
            [
              -4.691227,
              58.508053
            ],
            [
              -4.687888,
              58.508059
            ],
            [
              -4.682259,
              58.512626
            ],
            [
              -4.683363,
              58.51521
            ],
            [
              -4.669705,
              58.525576
            ],
            [
              -4.667412,
              58.525888
            ],
            [
              -4.665271,
              58.524364
            ],
            [
              -4.662966,
              58.524926
            ],
            [
              -4.660497,
              58.527584
            ],
            [
              -4.655428,
              58.530942
            ],
            [
              -4.651327,
              58.534512
            ],
            [
              -4.653058,
              58.540476
            ],
            [
              -4.654316,
              58.544204
            ],
            [
              -4.657331,
              58.546524
            ],
            [
              -4.657,
              58.54984
            ],
            [
              -4.653174,
              58.551167
            ],
            [
              -4.656672,
              58.55241
            ],
            [
              -4.659856,
              58.551415
            ],
            [
              -4.663188,
              58.552659
            ],
            [
              -4.663511,
              58.551166
            ],
            [
              -4.666532,
              58.550337
            ],
            [
              -4.66764,
              58.551415
            ],
            [
              -4.67336,
              58.551166
            ],
            [
              -4.680506,
              58.552493
            ],
            [
              -4.67844,
              58.552907
            ],
            [
              -4.680185,
              58.554068
            ],
            [
              -4.685426,
              58.55581
            ],
            [
              -4.690986,
              58.556972
            ],
            [
              -4.695321,
              58.556442
            ],
            [
              -4.702485,
              58.55598
            ],
            [
              -4.704524,
              58.557731
            ],
            [
              -4.707047,
              58.559404
            ],
            [
              -4.709897,
              58.560916
            ],
            [
              -4.709422,
              58.56327
            ],
            [
              -4.70656,
              58.563939
            ],
            [
              -4.704435,
              58.566462
            ],
            [
              -4.708163,
              58.566871
            ],
            [
              -4.71405,
              58.56902
            ],
            [
              -4.717191,
              58.570146
            ],
            [
              -4.720926,
              58.570454
            ],
            [
              -4.726628,
              58.570149
            ],
            [
              -4.731346,
              58.568721
            ],
            [
              -4.734493,
              58.566273
            ],
            [
              -4.740955,
              58.569848
            ],
            [
              -4.740365,
              58.570766
            ],
            [
              -4.742716,
              58.573114
            ],
            [
              -4.742124,
              58.575363
            ],
            [
              -4.744673,
              58.575669
            ],
            [
              -4.740546,
              58.579966
            ],
            [
              -4.742505,
              58.582627
            ],
            [
              -4.741915,
              58.583651
            ],
            [
              -4.743681,
              58.584469
            ],
            [
              -4.745056,
              58.583239
            ],
            [
              -4.751922,
              58.582624
            ],
            [
              -4.755453,
              58.584058
            ],
            [
              -4.754865,
              58.587128
            ],
            [
              -4.762518,
              58.587844
            ],
            [
              -4.76448,
              58.588765
            ],
            [
              -4.766442,
              58.590401
            ],
            [
              -4.765265,
              58.592242
            ],
            [
              -4.767227,
              58.593571
            ],
            [
              -4.766246,
              58.596025
            ],
            [
              -4.765069,
              58.597967
            ],
            [
              -4.77017,
              58.599808
            ],
            [
              -4.771348,
              58.601546
            ],
            [
              -4.768993,
              58.604919
            ],
            [
              -4.770759,
              58.60451
            ],
            [
              -4.774487,
              58.604306
            ],
            [
              -4.778804,
              58.60175
            ],
            [
              -4.779981,
              58.600217
            ],
            [
              -4.784298,
              58.601239
            ],
            [
              -4.78626,
              58.599501
            ],
            [
              -4.789792,
              58.600421
            ],
            [
              -4.792736,
              58.600012
            ],
            [
              -4.79097,
              58.599297
            ],
            [
              -4.788026,
              58.597456
            ],
            [
              -4.787045,
              58.595514
            ],
            [
              -4.779785,
              58.594696
            ],
            [
              -4.777038,
              58.591935
            ],
            [
              -4.771348,
              58.588356
            ],
            [
              -4.769385,
              58.585697
            ],
            [
              -4.765864,
              58.58378
            ],
            [
              -4.765869,
              58.579773
            ],
            [
              -4.76803,
              58.576796
            ],
            [
              -4.771758,
              58.576796
            ],
            [
              -4.776074,
              58.577617
            ],
            [
              -4.782943,
              58.577621
            ],
            [
              -4.788243,
              58.577214
            ],
            [
              -4.792353,
              58.577507
            ],
            [
              -4.795662,
              58.576152
            ],
            [
              -4.795472,
              58.578406
            ],
            [
              -4.798783,
              58.580428
            ],
            [
              -4.799558,
              58.579297
            ],
            [
              -4.79761,
              58.577572
            ],
            [
              -4.798573,
              58.573475
            ],
            [
              -4.799341,
              58.570201
            ],
            [
              -4.801082,
              58.568253
            ],
            [
              -4.80265,
              58.56591
            ],
            [
              -4.805576,
              58.564074
            ],
            [
              -4.804423,
              58.560714
            ],
            [
              -4.798779,
              58.558985
            ],
            [
              -4.796445,
              58.555922
            ],
            [
              -4.789608,
              58.553468
            ],
            [
              -4.782329,
              58.552621
            ],
            [
              -4.777941,
              58.55084
            ],
            [
              -4.778359,
              58.548123
            ],
            [
              -4.778987,
              58.544969
            ],
            [
              -4.78108,
              58.541268
            ],
            [
              -4.783793,
              58.538101
            ],
            [
              -4.788087,
              58.536467
            ],
            [
              -4.7911,
              58.5333
            ],
            [
              -4.7954087,
              58.529742
            ],
            [
              -4.7994082,
              58.5262323
            ],
            [
              -4.8000038,
              58.5250772
            ],
            [
              -4.802857,
              58.5251694
            ],
            [
              -4.8042585,
              58.5249883
            ],
            [
              -4.8040883,
              58.5232111
            ],
            [
              -4.8094493,
              58.5204562
            ],
            [
              -4.8131083,
              58.5224557
            ],
            [
              -4.8111511,
              58.5264989
            ],
            [
              -4.8129381,
              58.5266766
            ],
            [
              -4.8168524,
              58.5262323
            ],
            [
              -4.8192351,
              58.5255215
            ],
            [
              -4.8226388,
              58.5262768
            ],
            [
              -4.820204,
              58.5281662
            ],
            [
              -4.8181987,
              58.529333
            ],
            [
              -4.8172627,
              58.5311543
            ],
            [
              -4.8042935,
              58.5385549
            ],
            [
              -4.8008898,
              58.5385549
            ],
            [
              -4.7962947,
              58.5405534
            ],
            [
              -4.7945077,
              58.5420633
            ],
            [
              -4.7953677,
              58.5448239
            ],
            [
              -4.792958,
              58.5460965
            ],
            [
              -4.7935677,
              58.5472175
            ],
            [
              -4.7944609,
              58.5477719
            ],
            [
              -4.794763,
              58.5483406
            ],
            [
              -4.7953287,
              58.5491571
            ],
            [
              -4.7973963,
              58.5499562
            ],
            [
              -4.7981194,
              58.5511631
            ],
            [
              -4.8015418,
              58.5517768
            ],
            [
              -4.8024607,
              58.5520165
            ],
            [
              -4.8026394,
              58.5525092
            ],
            [
              -4.8032482,
              58.5525741
            ],
            [
              -4.8038608,
              58.5524542
            ],
            [
              -4.8046777,
              58.552654
            ],
            [
              -4.8053413,
              58.5533731
            ],
            [
              -4.8063303,
              58.5536434
            ],
            [
              -4.8068664,
              58.5535236
            ],
            [
              -4.8079129,
              58.5538565
            ],
            [
              -4.8096231,
              58.5539231
            ],
            [
              -4.8118184,
              58.5548686
            ],
            [
              -4.813473,
              58.5561903
            ],
            [
              -4.8157711,
              58.5608867
            ],
            [
              -4.8193696,
              58.5635978
            ],
            [
              -4.8169706,
              58.570166
            ],
            [
              -4.8167707,
              58.5716255
            ],
            [
              -4.8225683,
              58.5711043
            ],
            [
              -4.8181701,
              58.5787133
            ],
            [
              -4.8185699,
              58.5837157
            ],
            [
              -4.8167707,
              58.5893424
            ],
            [
              -4.8227976,
              58.592504
            ],
            [
              -4.8275956,
              58.5950043
            ],
            [
              -4.8277955,
              58.5979211
            ],
            [
              -4.8367918,
              58.60115
            ],
            [
              -4.8435891,
              58.6021916
            ],
            [
              -4.8419897,
              58.599796
            ],
            [
              -4.8467878,
              58.5980252
            ],
            [
              -4.8497865,
              58.6009417
            ],
            [
              -4.8547845,
              58.6032331
            ],
            [
              -4.858383,
              58.6058367
            ],
            [
              -4.8718521,
              58.6099684
            ],
            [
              -4.8773443,
              58.6148187
            ],
            [
              -4.883911,
              58.61457
            ],
            [
              -4.8879704,
              58.6123315
            ],
            [
              -4.9072798,
              58.613886
            ],
            [
              -4.9083382,
              58.6140841
            ],
            [
              -4.9099789,
              58.6140158
            ],
            [
              -4.9123088,
              58.6137594
            ],
            [
              -4.9156887,
              58.6137765
            ],
            [
              -4.9174607,
              58.6141867
            ],
            [
              -4.9191999,
              58.6146994
            ],
            [
              -4.9211688,
              58.6150241
            ],
            [
              -4.9226127,
              58.6156735
            ],
            [
              -4.924225,
              58.615212
            ],
            [
              -4.9257673,
              58.6154342
            ],
            [
              -4.9291473,
              58.6160665
            ],
            [
              -4.9354149,
              58.617126
            ],
            [
              -4.9368916,
              58.6167842
            ],
            [
              -4.9375479,
              58.616169
            ],
            [
              -4.9376916,
              58.6156302
            ],
            [
              -4.9369369,
              58.6149808
            ],
            [
              -4.9376916,
              58.6149637
            ],
            [
              -4.9381182,
              58.6147586
            ],
            [
              -4.9384463,
              58.6140066
            ],
            [
              -4.9387089,
              58.6136136
            ],
            [
              -4.9400215,
              58.6136307
            ],
            [
              -4.9436437,
              58.6118135
            ],
            [
              -4.9416508,
              58.6100689
            ],
            [
              -4.9435523,
              58.6093863
            ],
            [
              -4.9445253,
              58.6088641
            ],
            [
              -4.9460194,
              58.6086248
            ],
            [
              -4.9465886,
              58.6088984
            ],
            [
              -4.9463472,
              58.6096415
            ],
            [
              -4.9471813,
              58.609893
            ],
            [
              -4.9515932,
              58.6105285
            ],
            [
              -4.9538979,
              58.6103732
            ],
            [
              -4.9566856,
              58.6097558
            ],
            [
              -4.9577766,
              58.6102258
            ],
            [
              -4.9572937,
              58.6106831
            ],
            [
              -4.95804,
              58.6105574
            ],
            [
              -4.9590858,
              58.6109092
            ],
            [
              -4.9575571,
              58.6118035
            ],
            [
              -4.9569864,
              58.6127638
            ],
            [
              -4.9587404,
              58.6133977
            ],
            [
              -4.9583892,
              58.6138321
            ],
            [
              -4.9598365,
              58.6141664
            ],
            [
              -4.9645498,
              58.6150302
            ],
            [
              -4.9651189,
              58.6148029
            ],
            [
              -4.9668529,
              58.615123
            ],
            [
              -4.9681699,
              58.6153059
            ],
            [
              -4.9692687,
              58.6156587
            ],
            [
              -4.9699704,
              58.6155188
            ],
            [
              -4.9709582,
              58.6155417
            ],
            [
              -4.9712874,
              58.6158503
            ],
            [
              -4.9715069,
              58.6162047
            ],
            [
              -4.9720557,
              58.6162504
            ],
            [
              -4.9733946,
              58.6161246
            ],
            [
              -4.974119,
              58.6157703
            ],
            [
              -4.974453,
              58.6153416
            ],
            [
              -4.9746952,
              58.6153153
            ],
            [
              -4.9750333,
              58.6153573
            ],
            [
              -4.9754975,
              58.6151655
            ],
            [
              -4.9757246,
              58.6152102
            ],
            [
              -4.9753411,
              58.6155097
            ],
            [
              -4.9752503,
              58.6157436
            ],
            [
              -4.9755018,
              58.6159646
            ],
            [
              -4.9760907,
              58.6159089
            ],
            [
              -4.9766787,
              58.6156521
            ],
            [
              -4.977096,
              58.6154743
            ],
            [
              -4.9776175,
              58.6152076
            ],
            [
              -4.9780064,
              58.6154002
            ],
            [
              -4.9777788,
              58.6155089
            ],
            [
              -4.9777788,
              58.6156076
            ],
            [
              -4.9773899,
              58.6158299
            ],
            [
              -4.9766432,
              58.6163148
            ],
            [
              -4.9762544,
              58.6166704
            ],
            [
              -4.9758371,
              58.6171346
            ],
            [
              -4.9756993,
              58.6174506
            ],
            [
              -4.9772644,
              58.6178421
            ],
            [
              -4.9785246,
              58.6180346
            ],
            [
              -4.9789421,
              58.6179414
            ],
            [
              -4.9792328,
              58.6176891
            ],
            [
              -4.9792924,
              58.6178871
            ],
            [
              -4.9791284,
              58.618019
            ],
            [
              -4.9791359,
              58.6181898
            ],
            [
              -4.9792552,
              58.6183219
            ],
            [
              -4.9789719,
              58.6183879
            ],
            [
              -4.9789794,
              58.6185199
            ],
            [
              -4.9791508,
              58.618679
            ],
            [
              -4.9792104,
              58.6188343
            ],
            [
              -4.9791135,
              58.6191991
            ],
            [
              -4.9792104,
              58.6193233
            ],
            [
              -4.9795161,
              58.6193932
            ],
            [
              -4.9797844,
              58.6193932
            ],
            [
              -4.9798664,
              58.6194398
            ],
            [
              -4.97972,
              58.6195301
            ],
            [
              -4.9797797,
              58.6196893
            ],
            [
              -4.980048,
              58.6198406
            ],
            [
              -4.9803387,
              58.6200076
            ],
            [
              -4.9806969,
              58.6201019
            ],
            [
              -4.980928,
              58.6201175
            ],
            [
              -4.9811516,
              58.6200709
            ],
            [
              -4.9812485,
              58.6201679
            ],
            [
              -4.9812336,
              58.6202844
            ],
            [
              -4.9813827,
              58.6203348
            ],
            [
              -4.9820086,
              58.620559
            ],
            [
              -4.9822644,
              58.6205409
            ],
            [
              -4.9827178,
              58.6204077
            ],
            [
              -4.9832642,
              58.6203835
            ],
            [
              -4.9839618,
              58.6206438
            ],
            [
              -4.9849268,
              58.6207648
            ],
            [
              -4.9848686,
              58.6210917
            ],
            [
              -4.9851825,
              58.621231
            ],
            [
              -4.9850314,
              58.6216123
            ],
            [
              -4.9851593,
              58.6217818
            ],
            [
              -4.9854848,
              58.6217879
            ],
            [
              -4.9857755,
              58.6217031
            ],
            [
              -4.9860661,
              58.6216002
            ],
            [
              -4.9861824,
              58.6214489
            ],
            [
              -4.986659,
              58.621352
            ],
            [
              -4.9870265,
              58.6213519
            ],
            [
              -4.9873404,
              58.6211279
            ],
            [
              -4.9876078,
              58.6212248
            ],
            [
              -4.9878171,
              58.6214548
            ],
            [
              -4.9883297,
              58.6216383
            ],
            [
              -4.9885971,
              58.6221104
            ],
            [
              -4.9890698,
              58.6221889
            ],
            [
              -4.9895116,
              58.6218439
            ],
            [
              -4.9897441,
              58.6216865
            ],
            [
              -4.9900347,
              58.6216441
            ],
            [
              -4.990244,
              58.6218015
            ],
            [
              -4.9901859,
              58.6220497
            ],
            [
              -4.9901859,
              58.622431
            ],
            [
              -4.9905562,
              58.6229729
            ],
            [
              -4.9913468,
              58.6232453
            ],
            [
              -4.9916258,
              58.6231726
            ],
            [
              -4.9918002,
              58.6233119
            ],
            [
              -4.9916374,
              58.6236024
            ],
            [
              -4.9917188,
              58.6237295
            ],
            [
              -4.9919513,
              58.6238237
            ],
            [
              -4.9923582,
              58.6238419
            ],
            [
              -4.9923466,
              58.6241869
            ],
            [
              -4.9924977,
              58.6245016
            ],
            [
              -4.9930308,
              58.6248711
            ],
            [
              -4.9938795,
              58.6251435
            ],
            [
              -4.9947398,
              58.6253432
            ],
            [
              -4.9958831,
              58.6249312
            ],
            [
              -4.9963995,
              58.624864
            ],
            [
              -4.9968513,
              58.6248775
            ],
            [
              -4.9969804,
              58.6249514
            ],
            [
              -4.9968642,
              58.6251799
            ],
            [
              -4.9967868,
              58.6253412
            ],
            [
              -4.9963995,
              58.625442
            ],
            [
              -4.9966189,
              58.6257311
            ],
            [
              -4.9965673,
              58.625852
            ],
            [
              -4.9964253,
              58.6258991
            ],
            [
              -4.9965415,
              58.6260873
            ],
            [
              -4.9964769,
              58.6261814
            ],
            [
              -4.9962446,
              58.6261276
            ],
            [
              -4.996038,
              58.6261948
            ],
            [
              -4.9962446,
              58.6264502
            ],
            [
              -4.9969678,
              58.6268625
            ],
            [
              -4.9970023,
              58.6265572
            ],
            [
              -4.9972093,
              58.6262429
            ],
            [
              -4.9986755,
              58.6265033
            ],
            [
              -4.9990723,
              58.6265572
            ],
            [
              -5.000228,
              58.6262968
            ],
            [
              -5.0010387,
              58.6258388
            ],
            [
              -5.00147,
              58.6254795
            ],
            [
              -5.00147,
              58.6261261
            ],
            [
              -5.0017115,
              58.6262519
            ],
            [
              -5.0019012,
              58.6269164
            ],
            [
              -5.002643,
              58.6271319
            ],
            [
              -5.0037642,
              58.6274463
            ],
            [
              -5.0050804,
              58.6277779
            ],
            [
              -5.0083589,
              58.6248545
            ],
            [
              -5.0128808,
              58.6208624
            ],
            [
              -5.0156737,
              58.6165443
            ],
            [
              -5.0146098,
              58.611997
            ],
            [
              -5.0099549,
              58.6080252
            ],
            [
              -5.0144768,
              58.6067782
            ],
            [
              -5.0163388,
              58.6027597
            ],
            [
              -5.0156623,
              58.5994293
            ],
            [
              -5.0209592,
              58.5887565
            ],
            [
              -5.0336731,
              58.5680923
            ],
            [
              -5.0419401,
              58.5542601
            ],
            [
              -5.0546634,
              58.5412153
            ],
            [
              -5.0694173,
              58.5362583
            ],
            [
              -5.0768771,
              58.537057
            ],
            [
              -5.091718,
              58.536717
            ],
            [
              -5.1079,
              58.5268521
            ],
            [
              -5.1216578,
              58.5106086
            ],
            [
              -5.1267729,
              58.4896484
            ],
            [
              -5.1139847,
              58.4787856
            ],
            [
              -5.0830799,
              58.4623457
            ],
            [
              -5.087634,
              58.4482285
            ],
            [
              -5.1108463,
              58.4352123
            ],
            [
              -5.1220379,
              58.4295704
            ],
            [
              -5.1177632,
              58.4264704
            ],
            [
              -4.4551097,
              58.4235839
            ]
          ]
        ]
      },
      "properties": {
        "name": "Coastline",
        "description": "Cape Wrath Coast Line"
      }
    }
  ]
}