{"type":"FeatureCollection","features":[{"type":"Feature","properties":{},"geometry":{"coordinates":[-4.5,58.5764],"type":"Point"}},{"type":"Feature","properties":{},"geometry":{"coordinates":[-4.7911,58.5333],"type":"Point"}},{"type":"Feature","properties":{},"geometry":{"coordinates":[[-4.788086815523229,58.536466613785564],[-4.783792871521541,58.5381006997944],[-4.78108030030981,58.541267983616535],[-4.778987161739764,58.54496878318261],[-4.778359454694737,58.54812294015264],[-4.777941235837602,58.55083954144226],[-4.7823288869579414,58.55262092760029],[-4.7896075514924235,58.55346842652551],[-4.796445112088094,58.55592244149986],[-4.7987790217817405,58.55898510101321],[-4.804422808891928,58.56071410874284],[-4.805576131952137,58.564073826753656],[-4.802649566292615,58.56591040898644],[-4.801082035441908,58.56825294402216],[-4.799341211611761,58.5702006188624],[-4.79857252455983,58.57347455885008],[-4.7976104605002945,58.57757168579414],[-4.799557787171665,58.5792965411359],[-4.798783427210708,58.58042803425312],[-4.7954721549296835,58.578406056833614],[-4.795662109815964,58.576152333336495],[-4.792352504005265,58.57750656883687],[-4.788242589290917,58.577214225380885],[-4.782942712724008,58.577621294943924],[-4.776073903253945,58.57761722672697],[-4.77175768575259,58.57679560183399],[-4.7680302922489375,58.57679560183399],[-4.7658687285191945,58.57977262077998],[-4.765863883429404,58.58377990116355],[-4.769385401840594,58.58569665278657],[-4.771347606996443,58.588355690994945],[-4.7770380019471474,58.59193484642779],[-4.77978508916334,58.59469565902228],[-4.787045248237575,58.59551363572615],[-4.78802635081621,58.597456253740376],[-4.7909696585492725,58.599296529182],[-4.7927356431882515,58.60001216570427],[-4.789792335455189,58.60042109428571],[-4.786260366175782,58.599500998254],[-4.784298161021383,58.60123893710397],[-4.779981311890339,58.60021663273699],[-4.778803988945981,58.601750081102324],[-4.774487138153916,58.604305678962504],[-4.770758948833304,58.604510118723],[-4.7689929644189135,58.60491899465862],[-4.77134761030473,58.60154562520523],[-4.770170287361822,58.59980770181724],[-4.765068554606387,58.59796745350624],[-4.766245877550688,58.59602486413124],[-4.76722698000313,58.593570912812],[-4.765264775098274,58.5922416173014],[-4.766442098041182,58.59040097089829],[-4.764479893134933,58.58876475946363],[-4.762517688230076,58.58784435690515],[-4.7578083964556015,58.58845796130072],[-4.7548650890983595,58.587128471509715],[-4.755453353718451,58.584057978872096],[-4.751922429587438,58.58262429173436],[-4.745056114894879,58.58323948055235],[-4.743680521135019,58.58446934037849],[-4.741914536720685,58.58365110553089],[-4.742504711172188,58.58262695278091],[-4.740545893402668,58.57996615685971],[-4.744673322621111,58.575668707603825],[-4.7421241273913495,58.57536256372515],[-4.742716146883794,58.57311436920065],[-4.740365382754902,58.57076602873556],[-4.740955198284269,58.56984757037634],[-4.734492633498604,58.56627313081637],[-4.731346145791775,58.56872078838748],[-4.726628009394574,58.57014889052101],[-4.720926425083377,58.57045363459284],[-4.717190595444919,58.57014568572262],[-4.714049852245012,58.569019983713076],[-4.708163136901646,58.566871091540605],[-4.704434883851263,58.566461763794734],[-4.706560279554054,58.563939492092175],[-4.709421620250197,58.563269881693515],[-4.709896894316188,58.56091584724055],[-4.70704691240465,58.559404631657515],[-4.704523940584096,58.55773087420047],[-4.702484893893683,58.55597990609243],[-4.695321259120135,58.556442324336615],[-4.690986056910447,58.55697185015774],[-4.685425589555024,58.5558103724419],[-4.680185069163258,58.554068447810465],[-4.678439809418904,58.5529073593066],[-4.68050612022688,58.55249272255966],[-4.673360120907063,58.55116601835161],[-4.667640378473237,58.551414759909875],[-4.666531647852736,58.55033693141979],[-4.663510737249112,58.55116601835161],[-4.6631880639153,58.5526585748764],[-4.659856048742057,58.551414759909875],[-4.656671977789671,58.55241014862892],[-4.6531741722334345,58.55116693628207],[-4.657000064364695,58.54983967698598],[-4.65733081647781,58.546524160711414],[-4.654316323948194,58.54420384679622],[-4.653058321892871,58.540475758259674],[-4.651326501517389,58.53451222881495],[-4.655428010316911,58.53094204482005],[-4.660496502819797,58.52758429698048],[-4.662966265521646,58.52492621054506],[-4.665271412781522,58.52436378476935],[-4.667412317306287,58.52588829508667],[-4.669705270040595,58.52557620188401],[-4.683363349112511,58.51520955850461],[-4.682258715816317,58.51262616013298],[-4.6878880668737395,58.50805909512579],[-4.691227019061074,58.508052761888706],[-4.693750006137037,58.504690874682694],[-4.704296646792756,58.50010058670975],[-4.71092741273597,58.49722961408412],[-4.71691112202015,58.48979618431653],[-4.723194582592413,58.48175607899131],[-4.729209504088374,58.47501989046725],[-4.741122432953034,58.467823283101666],[-4.746063438304446,58.46238977391485],[-4.744340693131363,58.45804119371033],[-4.749072305896334,58.4592161404623],[-4.752388155665926,58.45974791539456],[-4.753641135585468,58.45681899407663],[-4.752063741644946,58.45384343228676],[-4.755040947103993,58.45141965647841],[-4.758631851405255,58.45086724122348],[-4.760034799741703,58.44886646645682],[-4.749367420781084,58.449429875147416],[-4.738270152507141,58.44692985508905],[-4.731059611148623,58.45161829833606],[-4.72637803442592,58.45803329588827],[-4.7232781934589525,58.46384400393322],[-4.715494996257007,58.46311161848928],[-4.7128855304440265,58.464887696558435],[-4.708003380118839,58.46512766744169],[-4.70277503075252,58.4678925872623],[-4.69880975780157,58.46992917003334],[-4.694993654381506,58.47481402984059],[-4.6957586926740476,58.47708332333016],[-4.694993654381506,58.47805703132144],[-4.692090825879603,58.47749223443341],[-4.687369256216613,58.47749663710269],[-4.684181031417069,58.4774996099907],[-4.67778145990286,58.48290212967581],[-4.673178700748252,58.48354527667351],[-4.666964317611246,58.48209172278254],[-4.663882269512612,58.48321774861088],[-4.66196026025986,58.48611974139715],[-4.662910932128938,58.48976125413523],[-4.661287081416589,58.494859618438966],[-4.66189760343633,58.49679900135854],[-4.670042365038739,58.49571122363261],[-4.6680956922303665,58.49973657918548],[-4.661240476372541,58.49845634508091],[-4.660644911823454,58.505123989640566],[-4.661245647879014,58.50714975442108],[-4.658874072761165,58.5089376017888],[-4.652771689528606,58.51113435857138],[-4.649304986863655,58.51658277324265],[-4.640986440436251,58.52118753854967],[-4.638506573474444,58.5213493908432],[-4.634940403193724,58.52070035428872],[-4.633544757022179,58.52029485819412],[-4.627668527536912,58.52296840674654],[-4.627358966340722,58.523859708377415],[-4.618960638898159,58.523861300108194],[-4.610623641499217,58.5237618106143],[-4.606032288476939,58.52628075878235],[-4.602983930180329,58.526772134218305],[-4.602658417759443,58.531374766401626],[-4.601434769451799,58.533151749936934],[-4.597502493256314,58.53355416352923],[-4.593735415677372,58.53443808074189],[-4.595700147142281,58.53725781879322],[-4.594798025290601,58.53814127866474],[-4.595404008218395,58.546191967162315],[-4.598103349570238,58.548637379839846],[-4.602666733684515,58.552424486470386],[-4.603886702875002,58.55517062630233],[-4.601904227433948,58.55742760877877],[-4.598252102784244,58.55967556647397],[-4.59916222922206,58.56282186928905],[-4.5997178239535685,58.5692398327694],[-4.596212315369883,58.57285926509985],[-4.591024499963908,58.57413733385215],[-4.592188735879574,58.576402046598105],[-4.586566632684168,58.5782685659469],[-4.581410822714787,58.579651788853965],[-4.576297484527544,58.58021675001871],[-4.571325210244481,58.576088748964565],[-4.565300950359813,58.57802035796371],[-4.557980214474327,58.57865471180645],[-4.553206087173663,58.576876710075766],[-4.546326417567684,58.57816810306039],[-4.545803262663526,58.580520493979435],[-4.542945259641925,58.58133519364131],[-4.540395667934746,58.57897755796233],[-4.537074880429174,58.578966719003404],[-4.536891093231418,58.58092872133213],[-4.533588042513742,58.58174929974743],[-4.53332743566375,58.578966719003404],[-4.526433945616418,58.57978295614873],[-4.52493049627418,58.57742062037258],[-4.522738050281248,58.57709523271447],[-4.515554873912407,58.57888982241127],[-4.512251537805071,58.57831785886242],[-4.510241077571948,58.577091968406364],[-4.506807921795058,58.57652051298098],[-4.502285619058711,58.57578636975984],[-4.50071055797855,58.576312674918086]],"type":"LineString"}}]}